OBJECT_NAME,OBJECT_ID,EPOCH,MEAN_MOTION,ECCENTRICITY,INCLINATION,RA_OF_ASC_NODE,ARG_OF_PERICENTER,MEAN_ANOMALY,EPHEMERIS_TYPE,CLASSIFICATION_TYPE,NORAD_CAT_ID,ELEMENT_SET_NO,REV_AT_EPOCH,BSTAR,MEAN_MOTION_DOT,MEAN_MOTION_DDOT
SL-6 R/B(2),1990-055D,2026-07-10T23:37:10.361280,15.04076991,.0044462,62.7799,194.3925,8.4250,351.7585,0,U,20666,999,95673,.86525245E-4,.1019E-4,0
SL-8 R/B,1990-078B,2026-07-11T20:37:09.970752,14.93497547,.03440717,82.9024,139.3313,314.9132,42.4627,0,U,20775,999,82780,.37734322E-3,.13322E-3,0
SL-8 R/B,1991-006B,2026-07-11T18:13:50.575296,13.77508690,.00235925,82.9412,77.7528,49.6811,11.8842,0,U,21088,999,78115,.48106647E-4,.63E-6,0
OKEAN-3,1991-039A,2026-07-11T12:47:50.850816,15.05422298,.00121611,82.5138,216.7702,268.5123,91.4711,0,U,21397,999,88366,.101971E-3,.1493E-4,0
COSMOS 2151,1991-042A,2026-07-11T20:49:05.291904,15.00507998,.00122883,82.4978,323.8621,6.7925,353.3463,0,U,21422,999,88181,.58792768E-4,.769E-5,0
SL-14 R/B,1991-042B,2026-07-11T20:47:06.026208,14.81916998,.00166766,82.4935,103.7536,187.8826,172.2129,0,U,21423,999,87146,.20025808E-4,.182E-5,0
ERS-1,1991-050A,2026-07-11T16:49:17.899104,14.39531387,.00316604,98.7795,213.9974,192.1679,167.8747,0,U,21574,999,83357,.60273588E-4,.143E-5,0
ARIANE 40 R/B,1991-050F,2026-07-11T17:38:14.318016,14.42970703,.00042802,98.1864,240.1940,69.0096,291.1552,0,U,21610,999,83688,.49702634E-4,.125E-5,0
INTERCOSMOS 25,1991-086A,2026-07-11T15:01:50.984256,12.12237520,.14844012,82.6014,235.0208,209.6284,141.2096,0,U,21819,999,51170,.13882387E-3,.711E-5,0
SL-8 R/B,1992-008B,2026-07-11T21:55:37.394400,13.75983091,.00354692,82.9270,175.4030,145.5721,233.3019,0,U,21876,999,72650,.10133406E-3,.114E-5,0
SL-8 R/B,1992-020B,2026-07-11T17:06:03.111264,13.75550295,.00280904,82.9287,61.6383,313.7154,106.8190,0,U,21938,999,71818,.1516363E-4,.3E-6,0
USA 81,1992-023A,2026-07-11T17:23:15.287136,14.32404318,.00021266,85.0053,59.8428,65.8458,294.2957,0,U,21949,999,11254,.30670545E-4,.103E-5,0
COSMOS 2219,1992-076A,2026-07-11T21:04:10.596288,14.14109662,.00180503,71.0615,118.4579,2.6786,357.4429,0,U,22219,999,73593,-.6387803E-4,-.169E-5,0
SL-16 R/B,1992-076B,2026-07-11T16:15:47.062656,14.16875837,.00150011,71.0007,287.1913,266.5741,198.8374,0,U,22220,999,73939,.13808142E-3,.229E-5,0
COSMOS 2221,1992-080A,2026-07-11T21:04:00.151392,14.96598168,.00155109,82.5044,160.1085,130.3175,229.9405,0,U,22236,999,79936,.7849876E-4,.922E-5,0
SL-16 R/B,1992-093B,2026-07-11T20:02:58.261920,14.15466786,.00024359,71.0222,103.6485,142.9198,217.2094,0,U,22285,999,73072,-.60270591E-4,-.165E-5,0
COSMOS 2228,1992-094A,2026-07-11T21:00:56.671488,14.97669663,.00161282,82.5189,118.3953,241.2863,118.6739,0,U,22286,999,79464,.9014696E-4,.1084E-4,0
SL-16 R/B,1993-016B,2026-07-11T17:56:14.843328,14.15311538,.00089698,71.0084,314.6220,144.2267,215.9459,0,U,22566,999,71972,.29136258E-4,.9E-7,0
COSMOS 2242,1993-024A,2026-07-11T20:18:52.491168,14.96978593,.00144606,82.5197,147.9504,245.0379,114.9342,0,U,22626,999,79896,.82361343E-4,.975E-5,0
SL-16 R/B,1993-059B,2026-07-11T20:09:44.656416,14.17250401,.00164708,70.9905,109.3160,13.5738,346.5826,0,U,22803,999,69712,-.10081235E-3,-.252E-5,0
ARIANE 40 R/B,1993-061H,2026-07-11T18:50:09.680928,14.32917693,.00094589,98.4808,259.1296,277.0592,82.9517,0,U,22830,999,71187,.4338907E-4,.75E-6,0
COSMOS 2278,1994-023A,2026-07-11T15:30:37.209600,14.14393490,.00098248,71.0529,275.7517,211.0303,149.0240,0,U,23087,999,66233,-.4951999E-4,-.142E-5,0
SL-16 R/B,1994-023B,2026-07-11T10:12:02.839104,14.15023863,.000148,70.9980,171.0292,142.1590,217.9637,0,U,23088,999,66359,-.6967966E-5,-.61E-6,0
SL-16 R/B,1994-074B,2026-07-11T15:21:17.379072,14.79522445,.00068911,97.6986,218.3409,165.0348,309.1640,0,U,23343,999,70557,.35461E-4,.216E-5,0
SL-16 R/B,1994-077B,2026-07-11T20:28:20.000064,14.15574983,.00040753,70.9825,91.2711,305.9144,54.1600,0,U,23405,999,63380,-.10370679E-3,-.251E-5,0
ARIANE 40+ R/B,1995-021B,2026-07-11T19:16:30.916704,14.39846419,.00078055,98.4402,262.5213,125.2176,345.1722,0,U,23561,999,63710,.49916732E-4,.113E-5,0
SL-16 R/B,1995-058B,2026-07-11T15:41:43.088352,14.15508016,.00146094,71.0213,279.9902,287.4123,72.5403,0,U,23705,999,58539,.1351148E-5,-.45E-6,0
SL-16 R/B,1996-051B,2026-07-11T16:14:10.689504,14.12455063,.00175309,70.7649,272.8234,302.7368,57.2061,0,U,24298,999,53915,.99392092E-4,.134E-5,0
ORBVIEW 2 (SEASTAR),1997-037A,2026-07-11T09:57:00.863712,14.35565701,.00031792,98.8709,0.1077,68.4004,291.7519,0,U,24883,999,52622,.59286711E-4,.124E-5,0
SL-16 R/B,1998-043G,2026-07-11T20:23:23.453664,14.26072367,.00102126,98.8378,147.2228,20.7516,339.4077,0,U,25400,999,45668,.15857049E-4,-.8E-7,0
SL-16 R/B,1998-045B,2026-07-11T16:11:35.130624,14.16206532,.00083595,71.0117,280.8322,211.6451,148.4171,0,U,25407,999,44465,-.10484307E-3,-.255E-5,0
ISS (ZARYA),1998-067A,2026-07-11T19:56:37.121280,15.48984830,.00066855,51.6301,178.1288,284.5605,75.4642,0,U,25544,999,57557,.10800904E-3,.5503E-4,0
CZ-4B R/B,1999-025C,2026-07-11T18:27:59.501952,14.18287291,.00368255,98.6473,233.9878,349.7088,124.0630,0,U,25732,999,40575,.22756786E-4,.4E-7,0
OKEAN-O,1999-039A,2026-07-11T16:17:25.770336,14.80494875,.00009585,97.9303,251.1939,80.2174,279.9147,0,U,25860,999,45273,.43072697E-4,.278E-5,0
SL-16 R/B,1999-039B,2026-07-11T17:53:17.700000,14.81868665,.00140581,97.9824,251.5368,210.0623,149.9784,0,U,25861,999,45523,.38296691E-4,.249E-5,0
DELTA 2 R/B,1999-041E,2026-07-11T22:46:23.395296,14.12075728,.05013059,51.7613,164.8684,355.1714,4.4482,0,U,25876,999,38058,.24929866E-3,.1312E-4,0
HELIOS 1B,1999-064A,2026-07-11T15:43:35.632128,14.88069884,.00021011,98.1590,98.5013,58.1999,301.9421,0,U,25977,999,70369,.84193448E-4,.715E-5,0
TERRA,1999-068A,2026-07-11T22:38:37.225824,14.61122138,.00032798,97.9443,241.5066,129.0892,284.3550,0,U,25994,999,41322,.50660562E-4,.205E-5,0
SL-16 R/B,2000-006B,2026-07-11T10:33:04.328352,14.15839011,.00170456,71.0002,197.6297,345.1977,14.8645,0,U,26070,999,36607,-.97423596E-4,-.24E-5,0
TITAN 4B R/B,2000-047B,2026-07-11T21:29:31.543872,15.10323641,.00459134,67.9872,51.0178,262.0185,97.5753,0,U,26474,999,41166,.90899751E-4,.1388E-4,0
ENVISAT,2002-009A,2026-07-11T20:42:00.523584,14.39070297,.00013388,98.3845,143.6323,83.7867,336.5198,0,U,27386,999,27703,.20085906E-4,.19E-6,0
IDEFIX & ARIANE 42P R/B,2002-021B,2026-07-11T19:26:45.435840,14.31092847,.00116809,98.5942,130.0269,176.2663,183.8609,0,U,27422,999,26177,.49517325E-4,.87E-6,0
AQUA,2002-022A,2026-07-11T23:00:13.161888,14.62194286,.00008308,98.4293,162.7390,107.2850,288.6762,0,U,27424,999,28689,.90228344E-4,.405E-5,0
CZ-4B R/B,2002-024C,2026-07-11T19:04:19.284096,14.14567809,.00506473,98.8688,245.4534,31.5672,81.2186,0,U,27432,999,24678,.22022443E-4,-.1E-7,0
MIDORI II (ADEOS-II),2002-056A,2026-07-11T20:21:51.528384,14.29362111,.0001617,98.7892,152.3199,43.6524,316.4785,0,U,27597,999,22803,.62714914E-4,.114E-5,0
H-2A R/B,2002-056E,2026-07-11T20:29:09.557376,14.33832769,.00706925,98.3326,148.6307,150.7915,263.9999,0,U,27601,999,23190,.5669937E-4,.121E-5,0
CZ-4B R/B,2003-049C,2026-07-11T20:21:59.701824,14.55114701,.00474322,98.6908,192.6781,211.6082,148.2263,0,U,28059,999,20465,.44914006E-4,.145E-5,0
CZ-2C R/B,2004-012C,2026-07-11T20:02:50.369280,15.84477449,.00109814,97.7072,271.4652,201.2814,158.8000,0,U,28222,999,22379,.41442464E-3,.95412E-3,0
SL-16 R/B,2004-021B,2026-07-11T20:09:15.483456,14.14615883,.00064275,71.0025,331.9498,227.8280,132.2297,0,U,28353,999,14039,.75275316E-4,.97E-6,0
CZ-4B R/B,2004-035C,2026-07-11T15:29:30.904512,15.30960838,.00290247,97.3363,225.4469,245.9380,113.8823,0,U,28415,999,19886,.15061431E-3,.4483E-4,0
CZ-2C R/B,2004-046B,2026-07-11T17:34:46.598592,14.27032390,.01399373,98.1922,99.9767,147.5803,213.4073,0,U,28480,999,12619,.30828516E-4,.43E-6,0
ARIANE 5 R/B,2004-049H,2026-07-11T10:43:35.851872,14.85476298,.00828051,98.2738,5.6402,310.5973,48.8055,0,U,28499,999,16416,.38804579E-4,.289E-5,0
CZ-2D R/B,2005-024B,2026-07-11T14:46:39.327744,15.72416912,.00017742,97.3478,213.3121,203.5922,156.5260,0,U,28738,999,15917,.31207872E-3,.41426E-3,0
ALOS (DAICHI),2006-002A,2026-07-11T20:47:04.971264,14.70098011,.00007748,98.1336,148.3587,90.2748,269.8547,0,U,28931,999,9172,.94674645E-4,.519E-5,0
H-2A R/B,2006-002B,2026-07-11T21:38:26.441088,15.18413059,.00506051,98.2581,350.9757,177.1765,182.9763,0,U,28932,999,11327,.24325406E-3,.509E-4,0
RESURS-DK 1,2006-021A,2026-07-11T14:59:58.583040,15.13311404,.0006915,69.9312,276.2899,275.2250,84.8127,0,U,29228,999,10627,.6271749E-4,.1011E-4,0
CZ-4B R/B,2006-046C,2026-07-11T17:03:10.790784,15.17964077,.0032233,97.5444,237.2421,194.3231,165.7093,0,U,29507,999,7885,.11791996E-3,.2355E-4,0
CZ-2C R/B,2007-010B,2026-07-11T20:35:10.285152,14.20281295,.0057833,98.4116,300.0044,293.6721,65.8394,0,U,31114,999,99734,.27088882E-4,.17E-6,0
COSMO-SKYMED 1,2007-023A,2026-07-11T22:20:04.321248,14.97210019,.00011599,97.8843,24.9957,101.3053,258.8299,0,U,31598,999,3349,.11988464E-3,.1327E-4,0
COSMOS 2428,2007-029A,2026-07-11T15:20:16.054944,14.12932455,.00071784,70.9382,303.1376,88.1796,272.0147,0,U,31792,999,98160,.1195521E-3,.175E-5,0
SL-16 R/B,2007-029B,2026-07-11T15:37:40.598976,14.14850744,.00020413,70.9748,271.8031,256.6911,209.7663,0,U,31793,999,98290,.23493934E-4,-.3E-7,0
KORONAS-FOTON,2009-003A,2026-07-11T20:50:45.868416,15.46244824,.00123893,82.4297,146.5036,72.5138,287.7464,0,U,33504,999,96491,.16497862E-3,.8175E-4,0
CZ-2C R/B,2011-030B,2026-07-11T21:30:43.189344,14.81528551,.00509848,97.8668,147.8393,307.1677,116.7810,0,U,37731,999,80848,.79145874E-4,.579E-5,0
H-2A R/B,2012-025E,2026-07-11T21:47:48.924096,14.95832773,.00423184,98.4848,170.0959,266.2390,93.3989,0,U,38341,999,76678,.79024614E-4,.826E-5,0
SHIJIAN-16 (SJ-16),2013-057A,2026-07-11T23:19:44.522976,14.92667197,.00159269,74.9736,309.7389,172.7082,187.4341,0,U,39358,999,69004,.11154336E-3,.1123E-4,0
